NORAD_CAT_ID,OBJECT_NAME,OBJECT_TYPE,EPOCH,MEAN_MOTION,ECCENTRICITY,INCLINATION,RA_OF_ASC_NODE,ARG_OF_PERICENTER,MEAN_ANOMALY,BSTAR,MEAN_MOTION_DOT,MEAN_MOTION_DDOT,TLE_LINE0,TLE_LINE1,TLE_LINE2,SEMIMAJOR_AXIS,PERIOD,APOGEE,PERIGEE,DECAYED
54098.0,STARLINK-5217,PAYLOAD,2023-05-13 13:25:48,15.08839637,8.73e-05,53.217,282.6758,90.6612,269.448,8.3376e-05,1.039e-05,0.0,0 STARLINK-5217,1 54098U 22136AZ  23133.55958592  .00001039  00000-0  83376-4 0  9994,2 54098  53.2170 282.6758 0000873  90.6612 269.4480 15.08839637 31328,6917.881,95.438,540.35,539.143,0.0
54098.0,STARLINK-5217,PAYLOAD,2023-05-13 15:01:11,15.0883957,8.63e-05,53.2172,282.3783,91.1771,268.9319,8.1992e-05,1.017e-05,0.0,0 STARLINK-5217,1 54098U 22136AZ  23133.62582598  .00001017  00000-0  81992-4 0  9999,2 54098  53.2172 282.3783 0000863  91.1771 268.9319 15.08839570 31800,6917.882,95.438,540.344,539.15,0.0
54098.0,STARLINK-5217,PAYLOAD,2023-05-13 16:36:34,15.08844732,8e-05,53.2169,282.0807,91.2991,268.8093,3.0329e-05,1.95e-06,0.0,0 STARLINK-5217,1 54098U 22136AZ  23133.69206433  .00000195  00000-0  30329-4 0  9991,2 54098  53.2169 282.0807 0000800  91.2991 268.8093 15.08844732 31349,6917.866,95.437,540.284,539.177,0.0
54098.0,STARLINK-5217,PAYLOAD,2023-05-14 13:16:34,15.08888419,0.0001057,53.2166,278.2136,79.5028,280.6084,-0.00077604,-0.00012633,0.0,0 STARLINK-5217,1 54098U 22136AZ  23134.55317485 -.00012633  00000-0 -77604-3 0  9995,2 54098  53.2166 278.2136 0001057  79.5028 280.6084 15.08888419 31941,6917.732,95.434,540.329,538.866,0.0
54098.0,STARLINK-5217,PAYLOAD,2023-05-14 19:38:07,15.08845904,6.91e-05,53.2159,277.0262,83.9446,276.1625,8.3611e-05,1.043e-05,0.0,0 STARLINK-5217,1 54098U 22136AZ  23134.81814384  .00001043  00000-0  83611-4 0  9991,2 54098  53.2159 277.0262 0000691  83.9446 276.1625 15.08845904 31512,6917.862,95.437,540.205,539.249,0.0
54098.0,STARLINK-5217,PAYLOAD,2023-05-15 13:07:22,15.08836844,6.85e-05,53.216,273.7538,76.3318,283.775,1.8687e-05,1e-07,0.0,0 STARLINK-5217,1 54098U 22136AZ  23135.54679337  .00000010  00000-0  18687-4 0  9993,2 54098  53.2160 273.7538 0000685  76.3318 283.7750 15.08836844 31628,6917.89,95.438,540.229,539.281,0.0
54098.0,STARLINK-5217,PAYLOAD,2023-05-15 14:42:45,15.08838016,7.03e-05,53.216,273.4565,76.2667,283.8404,2.4964e-05,1.1e-06,0.0,0 STARLINK-5217,1 54098U 22136AZ  23135.61303235  .00000110  00000-0  24964-4 0  9998,2 54098  53.2160 273.4565 0000703  76.2667 283.8404 15.08838016 32106,6917.886,95.438,540.238,539.265,0.0
54098.0,STARLINK-5217,PAYLOAD,2023-05-15 16:18:08,15.08839258,7.78e-05,53.2166,273.1636,104.9502,255.1576,6.1268e-05,6.88e-06,0.0,0 STARLINK-5217,1 54098U 22136AZ  23135.67926965  .00000688  00000-0  61268-4 0  9993,2 54098  53.2166 273.1636 0000778 104.9502 255.1576 15.08839258 31646,6917.883,95.438,540.286,539.209,0.0
54098.0,STARLINK-5217,PAYLOAD,2023-05-16 12:58:10,15.08840463,8.59e-05,53.2166,269.2984,113.2272,246.8811,-3.1774e-05,-7.93e-06,0.0,0 STARLINK-5217,1 54098U 22136AZ  23136.54039416 -.00000793  00000-0 -31774-4 0  9994,2 54098  53.2166 269.2984 0000859 113.2272 246.8811 15.08840463 31778,6917.879,95.438,540.338,539.15,0.0
54098.0,STARLINK-5217,PAYLOAD,2023-05-16 17:44:19,15.08839889,0.0001026,53.2172,268.4076,116.761,243.3488,2.5451e-05,1.17e-06,0.0,0 STARLINK-5217,1 54098U 22136AZ  23136.73911286  .00000117  00000-0  25451-4 0  9992,2 54098  53.2172 268.4076 0001026 116.7610 243.3488 15.08839889 32277,6917.881,95.438,540.456,539.036,0.0
54098.0,STARLINK-5217,PAYLOAD,2023-05-17 15:59:43,15.08811601,0.0001136,53.2168,264.2427,112.1118,247.9995,0.00049121,7.532e-05,0.0,0 STARLINK-5217,1 54098U 22136AZ  23137.66647689  .00007532  00000-0  49121-3 0  9995,2 54098  53.2168 264.2427 0001136 112.1118 247.9995 15.08811601 32412,6917.967,95.439,540.618,539.046,0.0
54098.0,STARLINK-5217,PAYLOAD,2023-05-18 01:32:02,15.08840336,8.39e-05,53.216,262.4539,74.553,285.5554,-9.6807e-06,-4.42e-06,0.0,0 STARLINK-5217,1 54098U 22136AZ  23138.06391439 -.00000442  00000-0 -96807-5 0  9999,2 54098  53.2160 262.4539 0000839  74.5530 285.5554 15.08840336 32478,6917.879,95.438,540.325,539.164,0.0
54098.0,STARLINK-5217,PAYLOAD,2023-05-18 12:39:44,15.08835806,9.51e-05,53.2166,260.3708,82.5167,277.5934,1.4117e-05,-6.3e-07,0.0,0 STARLINK-5217,1 54098U 22136AZ  23138.52759817 -.00000063  00000-0  14117-4 0  9999,2 54098  53.2166 260.3708 0000951  82.5167 277.5934 15.08835806 32074,6917.893,95.438,540.416,539.1,0.0
54098.0,STARLINK-5217,PAYLOAD,2023-05-18 15:50:30,15.08836276,9.82e-05,53.2168,259.7763,81.6087,278.5016,1.7905e-05,-3e-08,0.0,0 STARLINK-5217,1 54098U 22136AZ  23138.66007807 -.00000003  00000-0  17905-4 0  9991,2 54098  53.2168 259.7763 0000982  81.6087 278.5016 15.08836276 32090,6917.892,95.438,540.436,539.077,0.0
54098.0,STARLINK-5217,PAYLOAD,2023-05-19 07:44:21,15.08841313,9.94e-05,53.2165,256.8054,75.4205,284.6897,5.3429e-05,5.63e-06,0.0,0 STARLINK-5217,1 54098U 22136AZ  23139.32247485  .00000563  00000-0  53429-4 0  9994,2 54098  53.2165 256.8054 0000994  75.4205 284.6897 15.08841313 32660,6917.876,95.437,540.429,539.054,0.0
54098.0,STARLINK-5217,PAYLOAD,2023-05-19 12:30:31,15.08839779,8.23e-05,53.2152,255.9139,79.2185,280.89,0.00011937,1.613e-05,0.0,0 STARLINK-5217,1 54098U 22136AZ  23139.52119351  .00001613  00000-0  11937-3 0  9990,2 54098  53.2152 255.9139 0000823  79.2185 280.8900 15.08839779 32228,6917.881,95.438,540.315,539.177,0.0
54098.0,STARLINK-5217,PAYLOAD,2023-05-20 10:45:54,15.08840149,9.16e-05,53.2148,251.7514,69.4084,290.7006,9.5613e-05,1.234e-05,0.0,0 STARLINK-5217,1 54098U 22136AZ  23140.44855321  .00001234  00000-0  95613-4 0  9990,2 54098  53.2148 251.7514 0000916  69.4084 290.7006 15.08840149 32833,6917.88,95.438,540.379,539.111,0.0
54098.0,STARLINK-5217,PAYLOAD,2023-05-20 13:56:40,15.08852023,7.29e-05,53.2155,251.1564,84.1799,275.9276,0.00011248,1.503e-05,0.0,0 STARLINK-5217,1 54098U 22136AZ  23140.58102504  .00001503  00000-0  11248-3 0  9993,2 54098  53.2155 251.1564 0000729  84.1799 275.9276 15.08852023 32859,6917.844,95.437,540.213,539.204,0.0
54098.0,STARLINK-5217,PAYLOAD,2023-05-21 12:12:05,15.08840452,7.76e-05,53.2154,246.9932,83.5686,276.5394,7.4064e-06,-1.7e-06,0.0,0 STARLINK-5217,1 54098U 22136AZ  23141.50839441 -.00000170  00000-0  74064-5 0  9990,2 54098  53.2154 246.9932 0000776  83.5686 276.5394 15.08840452 32524,6917.879,95.438,540.281,539.207,0.0
54098.0,STARLINK-5217,PAYLOAD,2023-05-21 13:47:28,15.0883987,7.5e-05,53.2154,246.6955,92.634,267.4738,1.0349e-05,-1.23e-06,0.0,0 STARLINK-5217,1 54098U 22136AZ  23141.57463432 -.00000123  00000-0  10349-4 0  9993,2 54098  53.2154 246.6955 0000750  92.6340 267.4738 15.08839870 33003,6917.881,95.438,540.265,539.227,0.0
54098.0,STARLINK-5217,PAYLOAD,2023-05-22 10:27:29,15.0883868,8.26e-05,53.2154,242.8305,78.4463,281.6622,2.8348e-05,1.63e-06,0.0,0 STARLINK-5217,1 54098U 22136AZ  23142.43575684  .00000163  00000-0  28348-4 0  9993,2 54098  53.2154 242.8305 0000826  78.4463 281.6622 15.08838680 32661,6917.884,95.438,540.321,539.178,0.0
54098.0,STARLINK-5217,PAYLOAD,2023-05-22 12:02:52,15.08839924,8.42e-05,53.2156,242.533,75.5581,284.5505,3.8248e-05,3.21e-06,0.0,0 STARLINK-5217,1 54098U 22136AZ  23142.50199599  .00000321  00000-0  38248-4 0  9994,2 54098  53.2156 242.5330 0000842  75.5581 284.5505 15.08839924 32670,6917.881,95.438,540.328,539.163,0.0
54098.0,STARLINK-5217,PAYLOAD,2023-05-23 11:53:40,15.0882855,8.38e-05,53.2157,238.0722,76.8981,283.2105,4.2039e-05,3.81e-06,0.0,0 STARLINK-5217,1 54098U 22136AZ  23143.49560622  .00000381  00000-0  42039-4 0  9991,2 54098  53.2157 238.0722 0000838  76.8981 283.2105 15.08828550 33293,6917.915,95.438,540.36,539.201,0.0
54098.0,STARLINK-5217,PAYLOAD,2023-05-24 14:55:12,15.08845525,9.11e-05,53.2162,233.0169,95.9629,264.1467,0.00011124,1.483e-05,0.0,0 STARLINK-5217,1 54098U 22136AZ  23144.62167644  .00001483  00000-0  11124-3 0  9998,2 54098  53.2162 233.0169 0000911  95.9629 264.1467 15.08845525 33461,6917.864,95.437,540.359,539.098,0.0
54098.0,STARLINK-5217,PAYLOAD,2023-05-25 14:46:00,15.08842162,9.06e-05,53.216,228.5538,88.6272,271.4824,0.00013541,1.868e-05,0.0,0 STARLINK-5217,1 54098U 22136AZ  23145.61527856  .00001868  00000-0  13541-3 0  9995,2 54098  53.2160 228.5538 0000906  88.6272 271.4824 15.08842162 33614,6917.874,95.437,540.366,539.112,0.0
54098.0,STARLINK-5217,PAYLOAD,2023-05-26 09:50:38,15.08838896,0.0001039,53.2166,224.9843,87.0316,273.0795,5.2559e-06,-2.04e-06,0.0,0 STARLINK-5217,1 54098U 22136AZ  23146.41016419 -.00000204  00000-0  52559-5 0  9990,2 54098  53.2166 224.9843 0001039  87.0316 273.0795 15.08838896 33736,6917.884,95.438,540.468,539.03,0.0
54098.0,STARLINK-5217,PAYLOAD,2023-05-26 13:01:24,15.08843895,9.87e-05,53.2164,224.3898,83.2771,276.8333,-5.5562e-06,-3.76e-06,0.0,0 STARLINK-5217,1 54098U 22136AZ  23146.54264134 -.00000376  00000-0 -55562-5 0  9991,2 54098  53.2164 224.3898 0000987  83.2771 276.8333 15.08843895 33286,6917.868,95.437,540.416,539.051,0.0
54098.0,STARLINK-5217,PAYLOAD,2023-05-26 14:36:47,15.08843817,0.0001016,53.2163,224.0927,94.9049,265.2059,-1.0909e-06,-3.05e-06,0.0,0 STARLINK-5217,1 54098U 22136AZ  23146.60888081 -.00000305  00000-0 -10909-5 0  9999,2 54098  53.2163 224.0927 0001016  94.9049 265.2059 15.08843817 33298,6917.869,95.437,540.437,539.031,0.0
54098.0,STARLINK-5217,PAYLOAD,2023-05-27 11:16:47,15.08843929,0.0001,53.2158,220.2274,101.6356,258.4749,3.5519e-05,2.78e-06,0.0,0 STARLINK-5217,1 54098U 22136AZ  23147.46999770  .00000278  00000-0  35519-4 0  9992,2 54098  53.2158 220.2274 0001000 101.6356 258.4749 15.08843929 33895,6917.868,95.437,540.425,539.042,0.0
54098.0,STARLINK-5217,PAYLOAD,2023-05-27 14:27:34,15.088442,0.0001,53.2158,219.6327,101.1781,258.9323,3.6849e-05,2.99e-06,0.0,0 STARLINK-5217,1 54098U 22136AZ  23147.60247720  .00000299  00000-0  36849-4 0  9999,2 54098  53.2158 219.6327 0001000 101.1781 258.9323 15.08844200 33440,6917.868,95.437,540.424,539.041,0.0
